{
"type": "FeatureCollection",
"name": "Previous Points",
"crs": { "type": "name", "properties": { "name": "urn:ogc:def:crs:OGC:1.3:CRS84" } },
"features": [
{ "type": "Feature", "properties": { "Id": "ZC1", "lat": -20.2479958, "lon": 31.0012451, "landcover": "artificial" }, "geometry": { "type": "Point", "coordinates": [ 31.0012451, -20.2479958 ] } },
{ "type": "Feature", "properties": { "Id": "ZC2", "lat": -16.9297521, "lon": 30.2262515, "landcover": "forest" }, "geometry": { "type": "Point", "coordinates": [ 30.2262515, -16.9297521 ] } },
{ "type": "Feature", "properties": { "Id": "ZC10", "lat": -18.0987803, "lon": 29.9317471, "landcover": "forest" }, "geometry": { "type": "Point", "coordinates": [ 29.9317471, -18.0987803 ] } },
{ "type": "Feature", "properties": { "Id": "ZC3", "lat": -16.7890601, "lon": 29.6496645, "landcover": "cropland" }, "geometry": { "type": "Point", "coordinates": [ 29.6496645, -16.7890601 ] } },
{ "type": "Feature", "properties": { "Id": "ZC11", "lat": -19.3438179, "lon": 30.2445313, "landcover": "forest" }, "geometry": { "type": "Point", "coordinates": [ 30.2445313, -19.3438179 ] } },
{ "type": "Feature", "properties": { "Id": "ZC5", "lat": -16.5312301, "lon": 28.7681978, "landcover": "forest" }, "geometry": { "type": "Point", "coordinates": [ 28.7681978, -16.5312301 ] } },
{ "type": "Feature", "properties": { "Id": "ZC12", "lat": -19.9960298, "lon": 31.3709465, "landcover": "artificial" }, "geometry": { "type": "Point", "coordinates": [ 31.3709465, -19.9960298 ] } },
{ "type": "Feature", "properties": { "Id": "ZC6", "lat": -16.1019182, "lon": 28.998421, "landcover": "forest" }, "geometry": { "type": "Point", "coordinates": [ 28.998421, -16.1019182 ] } },
{ "type": "Feature", "properties": { "Id": "ZC13", "lat": -19.9775763, "lon": 31.7881227, "landcover": "forest" }, "geometry": { "type": "Point", "coordinates": [ 31.7881227, -19.9775763 ] } },
{ "type": "Feature", "properties": { "Id": "ZC7", "lat": -19.4808334, "lon": 30.6425371, "landcover": "forest" }, "geometry": { "type": "Point", "coordinates": [ 30.6425371, -19.4808334 ] } },
{ "type": "Feature", "properties": { "Id": "ZC14", "lat": -20.2795889, "lon": 30.4861025, "landcover": "bush / shrub" }, "geometry": { "type": "Point", "coordinates": [ 30.4861025, -20.2795889 ] } },
{ "type": "Feature", "properties": { "Id": "ZC8", "lat": -20.3498247, "lon": 31.461657, "landcover": "grassland" }, "geometry": { "type": "Point", "coordinates": [ 31.461657, -20.3498247 ] } },
{ "type": "Feature", "properties": { "Id": "ZC15", "lat": -20.9839641, "lon": 31.2362548, "landcover": "cropland" }, "geometry": { "type": "Point", "coordinates": [ 31.2362548, -20.9839641 ] } },
{ "type": "Feature", "properties": { "Id": "ZC9", "lat": -18.5515431, "lon": 29.8288385, "landcover": "forest" }, "geometry": { "type": "Point", "coordinates": [ 29.8288385, -18.5515431 ] } },
{ "type": "Feature", "properties": { "Id": "ZC16", "lat": -21.3626394, "lon": 30.7281138, "landcover": "forest" }, "geometry": { "type": "Point", "coordinates": [ 30.7281138, -21.3626394 ] } },
{ "type": "Feature", "properties": { "Id": "ZC17", "lat": -20.9606929, "lon": 31.9359646, "landcover": "forest" }, "geometry": { "type": "Point", "coordinates": [ 31.9359646, -20.9606929 ] } },
{ "type": "Feature", "properties": { "Id": "ZC18", "lat": -21.0543552, "lon": 30.7353729, "landcover": "forest" }, "geometry": { "type": "Point", "coordinates": [ 30.7353729, -21.0543552 ] } },
{ "type": "Feature", "properties": { "Id": "ZC19", "lat": -17.6018666, "lon": 30.6661005, "landcover": "forest" }, "geometry": { "type": "Point", "coordinates": [ 30.6661005, -17.6018666 ] } },
{ "type": "Feature", "properties": { "Id": "ZC20", "lat": -20.8033102, "lon": 30.9303347, "landcover": "forest" }, "geometry": { "type": "Point", "coordinates": [ 30.9303347, -20.8033102 ] } },
{ "type": "Feature", "properties": { "Id": "ZC21", "lat": -17.3549621, "lon": 30.2755473, "landcover": "cropland" }, "geometry": { "type": "Point", "coordinates": [ 30.2755473, -17.3549621 ] } },
{ "type": "Feature", "properties": { "Id": "ZC22", "lat": -19.3254303, "lon": 30.913095, "landcover": "grassland" }, "geometry": { "type": "Point", "coordinates": [ 30.913095, -19.3254303 ] } },
{ "type": "Feature", "properties": { "Id": "ZC23", "lat": -19.8061036, "lon": 31.2534331, "landcover": "cropland" }, "geometry": { "type": "Point", "coordinates": [ 31.2534331, -19.8061036 ] } },
{ "type": "Feature", "properties": { "Id": "ZC24", "lat": -19.8577034, "lon": 30.7483144, "landcover": "forest" }, "geometry": { "type": "Point", "coordinates": [ 30.7483144, -19.8577034 ] } },
{ "type": "Feature", "properties": { "Id": "ZC25", "lat": -17.8349166, "lon": 30.1575749, "landcover": "forest" }, "geometry": { "type": "Point", "coordinates": [ 30.1575749, -17.8349166 ] } },
{ "type": "Feature", "properties": { "Id": "ZC26", "lat": -18.1032114, "lon": 30.316509, "landcover": "forest" }, "geometry": { "type": "Point", "coordinates": [ 30.316509, -18.1032114 ] } },
{ "type": "Feature", "properties": { "Id": "ZC27", "lat": -20.2619431, "lon": 30.9465972, "landcover": "forest" }, "geometry": { "type": "Point", "coordinates": [ 30.9465972, -20.2619431 ] } },
{ "type": "Feature", "properties": { "Id": "ZC28", "lat": -19.9480026, "lon": 30.7860901, "landcover": "forest" }, "geometry": { "type": "Point", "coordinates": [ 30.7860901, -19.9480026 ] } },
{ "type": "Feature", "properties": { "Id": "ZC29", "lat": -18.2559694, "lon": 30.3099489, "landcover": "forest" }, "geometry": { "type": "Point", "coordinates": [ 30.3099489, -18.2559694 ] } },
{ "type": "Feature", "properties": { "Id": "ZC30", "lat": -16.5768243, "lon": 29.6792396, "landcover": "forest" }, "geometry": { "type": "Point", "coordinates": [ 29.6792396, -16.5768243 ] } },
{ "type": "Feature", "properties": { "Id": "ZC31", "lat": -17.8467045, "lon": 31.0872853, "landcover": "forest" }, "geometry": { "type": "Point", "coordinates": [ 31.0872853, -17.8467045 ] } },
{ "type": "Feature", "properties": { "Id": "ZC4", "lat": -18.1723719, "lon": 30.0946398, "landcover": "cropland" }, "geometry": { "type": "Point", "coordinates": [ 30.0946398, -18.1723719 ] } },
{ "type": "Feature", "properties": { "Id": "ZE1", "lat": -18.2502705, "lon": 28.9828108, "landcover": "bush / shrub" }, "geometry": { "type": "Point", "coordinates": [ 28.9828108, -18.2502705 ] } },
{ "type": "Feature", "properties": { "Id": "ZE2", "lat": -18.7953834, "lon": 29.3482518, "landcover": "bush / shrub" }, "geometry": { "type": "Point", "coordinates": [ 29.3482518, -18.7953834 ] } },
{ "type": "Feature", "properties": { "Id": "ZE3", "lat": -19.0695046, "lon": 29.8042523, "landcover": "forest" }, "geometry": { "type": "Point", "coordinates": [ 29.8042523, -19.0695046 ] } },
{ "type": "Feature", "properties": { "Id": "ZE4", "lat": -20.4232242, "lon": 29.7360461, "landcover": "bush / shrub" }, "geometry": { "type": "Point", "coordinates": [ 29.7360461, -20.4232242 ] } },
{ "type": "Feature", "properties": { "Id": "ZE10", "lat": -17.6830553, "lon": 27.4279939, "landcover": "bush / shrub" }, "geometry": { "type": "Point", "coordinates": [ 27.4279939, -17.6830553 ] } },
{ "type": "Feature", "properties": { "Id": "ZE5", "lat": -21.6248219, "lon": 29.8216351, "landcover": "forest" }, "geometry": { "type": "Point", "coordinates": [ 29.8216351, -21.6248219 ] } },
{ "type": "Feature", "properties": { "Id": "ZE11", "lat": -18.4496135, "lon": 26.8787011, "landcover": "grassland" }, "geometry": { "type": "Point", "coordinates": [ 26.8787011, -18.4496135 ] } },
{ "type": "Feature", "properties": { "Id": "ZE6", "lat": -20.6019905, "lon": 29.0091711, "landcover": "forest" }, "geometry": { "type": "Point", "coordinates": [ 29.0091711, -20.6019905 ] } },
{ "type": "Feature", "properties": { "Id": "ZE12", "lat": -20.4804567, "lon": 28.0427424, "landcover": "forest" }, "geometry": { "type": "Point", "coordinates": [ 28.0427424, -20.4804567 ] } },
{ "type": "Feature", "properties": { "Id": "ZE7", "lat": -21.0112581, "lon": 29.1553837, "landcover": "forest" }, "geometry": { "type": "Point", "coordinates": [ 29.1553837, -21.0112581 ] } },
{ "type": "Feature", "properties": { "Id": "ZE13", "lat": -18.949947, "lon": 27.7650956, "landcover": "forest" }, "geometry": { "type": "Point", "coordinates": [ 27.7650956, -18.949947 ] } },
{ "type": "Feature", "properties": { "Id": "ZE8", "lat": -17.5967331, "lon": 27.673279, "landcover": "forest" }, "geometry": { "type": "Point", "coordinates": [ 27.673279, -17.5967331 ] } },
{ "type": "Feature", "properties": { "Id": "ZE14", "lat": -21.2437964, "lon": 28.2623723, "landcover": "bush / shrub" }, "geometry": { "type": "Point", "coordinates": [ 28.2623723, -21.2437964 ] } },
{ "type": "Feature", "properties": { "Id": "ZE9", "lat": -17.6979271, "lon": 28.5511908, "landcover": "forest" }, "geometry": { "type": "Point", "coordinates": [ 28.5511908, -17.6979271 ] } },
{ "type": "Feature", "properties": { "Id": "ZE15", "lat": -19.3510851, "lon": 28.1819568, "landcover": "forest" }, "geometry": { "type": "Point", "coordinates": [ 28.1819568, -19.3510851 ] } },
{ "type": "Feature", "properties": { "Id": "ZE16", "lat": -19.9760511, "lon": 28.9614981, "landcover": "bush / shrub" }, "geometry": { "type": "Point", "coordinates": [ 28.9614981, -19.9760511 ] } },
{ "type": "Feature", "properties": { "Id": "ZE17", "lat": -18.1451255, "lon": 27.0849817, "landcover": "bush / shrub" }, "geometry": { "type": "Point", "coordinates": [ 27.0849817, -18.1451255 ] } },
{ "type": "Feature", "properties": { "Id": "ZE18", "lat": -18.3842452, "lon": 26.6289417, "landcover": "grassland" }, "geometry": { "type": "Point", "coordinates": [ 26.6289417, -18.3842452 ] } },
{ "type": "Feature", "properties": { "Id": "ZE19", "lat": -18.3344852, "lon": 26.4727143, "landcover": "grassland" }, "geometry": { "type": "Point", "coordinates": [ 26.4727143, -18.3344852 ] } },
{ "type": "Feature", "properties": { "Id": "ZE20", "lat": -18.0384966, "lon": 25.8363761, "landcover": "forest" }, "geometry": { "type": "Point", "coordinates": [ 25.8363761, -18.0384966 ] } },
{ "type": "Feature", "properties": { "Id": "ZE21", "lat": -18.2308787, "lon": 26.0326912, "landcover": "forest" }, "geometry": { "type": "Point", "coordinates": [ 26.0326912, -18.2308787 ] } },
{ "type": "Feature", "properties": { "Id": "ZE22", "lat": -17.6589188, "lon": 27.5320999, "landcover": "forest" }, "geometry": { "type": "Point", "coordinates": [ 27.5320999, -17.6589188 ] } },
{ "type": "Feature", "properties": { "Id": "ZE23", "lat": -18.1470782, "lon": 28.9249975, "landcover": "grassland" }, "geometry": { "type": "Point", "coordinates": [ 28.9249975, -18.1470782 ] } },
{ "type": "Feature", "properties": { "Id": "ZE24", "lat": -18.4204447, "lon": 28.8594821, "landcover": "forest" }, "geometry": { "type": "Point", "coordinates": [ 28.8594821, -18.4204447 ] } },
{ "type": "Feature", "properties": { "Id": "ZE26", "lat": -19.0910568, "lon": 27.9058976, "landcover": "forest" }, "geometry": { "type": "Point", "coordinates": [ 27.9058976, -19.0910568 ] } },
{ "type": "Feature", "properties": { "Id": "ZE27", "lat": -19.8773263, "lon": 27.9171074, "landcover": "forest" }, "geometry": { "type": "Point", "coordinates": [ 27.9171074, -19.8773263 ] } },
{ "type": "Feature", "properties": { "Id": "ZE28", "lat": -20.3912551, "lon": 27.8879827, "landcover": "forest" }, "geometry": { "type": "Point", "coordinates": [ 27.8879827, -20.3912551 ] } },
{ "type": "Feature", "properties": { "Id": "ZE29", "lat": -20.6924472, "lon": 29.5269261, "landcover": "forest" }, "geometry": { "type": "Point", "coordinates": [ 29.5269261, -20.6924472 ] } },
{ "type": "Feature", "properties": { "Id": "ZW1", "lat": -18.6414283, "lon": 32.6357854, "landcover": "bush / shrub" }, "geometry": { "type": "Point", "coordinates": [ 32.6357854, -18.6414283 ] } },
{ "type": "Feature", "properties": { "Id": "ZW2", "lat": -17.3177023, "lon": 31.5648899, "landcover": "forest" }, "geometry": { "type": "Point", "coordinates": [ 31.5648899, -17.3177023 ] } },
{ "type": "Feature", "properties": { "Id": "ZW3", "lat": -17.5342136, "lon": 30.9875369, "landcover": "bush / shrub" }, "geometry": { "type": "Point", "coordinates": [ 30.9875369, -17.5342136 ] } },
{ "type": "Feature", "properties": { "Id": "ZW4", "lat": -17.1135251, "lon": 31.3984098, "landcover": "forest" }, "geometry": { "type": "Point", "coordinates": [ 31.3984098, -17.1135251 ] } },
{ "type": "Feature", "properties": { "Id": "ZW10", "lat": null, "lon": null, "landcover": "cropland" }, "geometry": null },
{ "type": "Feature", "properties": { "Id": "ZW5", "lat": -17.9587993, "lon": 31.307945, "landcover": "forest" }, "geometry": { "type": "Point", "coordinates": [ 31.307945, -17.9587993 ] } },
{ "type": "Feature", "properties": { "Id": "ZW11", "lat": -18.1317134, "lon": 30.8860498, "landcover": "bush / shrub" }, "geometry": { "type": "Point", "coordinates": [ 30.8860498, -18.1317134 ] } },
{ "type": "Feature", "properties": { "Id": "ZW6", "lat": -17.6831795, "lon": 31.4988948, "landcover": "grassland" }, "geometry": { "type": "Point", "coordinates": [ 31.4988948, -17.6831795 ] } },
{ "type": "Feature", "properties": { "Id": "ZW12", "lat": -18.398894, "lon": 32.6803778, "landcover": "forest" }, "geometry": { "type": "Point", "coordinates": [ 32.6803778, -18.398894 ] } },
{ "type": "Feature", "properties": { "Id": "ZW7", "lat": -17.4212778, "lon": 31.7921175, "landcover": "grassland" }, "geometry": { "type": "Point", "coordinates": [ 31.7921175, -17.4212778 ] } },
{ "type": "Feature", "properties": { "Id": "ZW13", "lat": -18.1638555, "lon": 32.7414164, "landcover": "bush / shrub" }, "geometry": { "type": "Point", "coordinates": [ 32.7414164, -18.1638555 ] } },
{ "type": "Feature", "properties": { "Id": "ZW14", "lat": -19.9578509, "lon": 32.3643907, "landcover": "bush / shrub" }, "geometry": { "type": "Point", "coordinates": [ 32.3643907, -19.9578509 ] } },
{ "type": "Feature", "properties": { "Id": "ZW17", "lat": -18.7789138, "lon": 30.9016475, "landcover": "grassland" }, "geometry": { "type": "Point", "coordinates": [ 30.9016475, -18.7789138 ] } },
{ "type": "Feature", "properties": { "Id": "ZW18", "lat": -20.2335656, "lon": 32.6391448, "landcover": "cropland" }, "geometry": { "type": "Point", "coordinates": [ 32.6391448, -20.2335656 ] } },
{ "type": "Feature", "properties": { "Id": "ZW19", "lat": -18.3864828, "lon": 32.4919409, "landcover": "forest" }, "geometry": { "type": "Point", "coordinates": [ 32.4919409, -18.3864828 ] } },
{ "type": "Feature", "properties": { "Id": "ZW20", "lat": -19.4061982, "lon": 32.5733828, "landcover": "bush / shrub" }, "geometry": { "type": "Point", "coordinates": [ 32.5733828, -19.4061982 ] } },
{ "type": "Feature", "properties": { "Id": "ZW21", "lat": -19.1000126, "lon": 32.7239988, "landcover": "forest" }, "geometry": { "type": "Point", "coordinates": [ 32.7239988, -19.1000126 ] } },
{ "type": "Feature", "properties": { "Id": "ZW22", "lat": -19.8300481, "lon": 32.8289877, "landcover": "forest" }, "geometry": { "type": "Point", "coordinates": [ 32.8289877, -19.8300481 ] } },
{ "type": "Feature", "properties": { "Id": "ZW23", "lat": -19.2452041, "lon": 30.7857537, "landcover": "forest" }, "geometry": { "type": "Point", "coordinates": [ 30.7857537, -19.2452041 ] } },
{ "type": "Feature", "properties": { "Id": "ZW24", "lat": -16.6739399, "lon": 31.5230464, "landcover": "cropland" }, "geometry": { "type": "Point", "coordinates": [ 31.5230464, -16.6739399 ] } },
{ "type": "Feature", "properties": { "Id": "ZW26", "lat": -18.9605661, "lon": 31.5412305, "landcover": "cropland" }, "geometry": { "type": "Point", "coordinates": [ 31.5412305, -18.9605661 ] } },
{ "type": "Feature", "properties": { "Id": "ZW27", "lat": -18.547853, "lon": 31.4122899, "landcover": "cropland" }, "geometry": { "type": "Point", "coordinates": [ 31.4122899, -18.547853 ] } },
{ "type": "Feature", "properties": { "Id": "ZW28", "lat": -18.9394119, "lon": 32.4901282, "landcover": "forest" }, "geometry": { "type": "Point", "coordinates": [ 32.4901282, -18.9394119 ] } },
{ "type": "Feature", "properties": { "Id": "ZW29", "lat": -18.9489763, "lon": 32.6442101, "landcover": "forest" }, "geometry": { "type": "Point", "coordinates": [ 32.6442101, -18.9489763 ] } },
{ "type": "Feature", "properties": { "Id": "ZW29", "lat": -18.9489763, "lon": 32.6442101, "landcover": "forest" }, "geometry": { "type": "Point", "coordinates": [ 32.6442101, -18.9489763 ] } },
{ "type": "Feature", "properties": { "Id": "ZW29", "lat": -17.4066634, "lon": 32.3399821, "landcover": "forest" }, "geometry": { "type": "Point", "coordinates": [ 32.3399821, -17.4066634 ] } },
{ "type": "Feature", "properties": { "Id": "ZW29", "lat": -17.4066634, "lon": 32.3399821, "landcover": "forest" }, "geometry": { "type": "Point", "coordinates": [ 32.3399821, -17.4066634 ] } },
{ "type": "Feature", "properties": { "Id": "ZW30", "lat": -20.368985, "lon": 32.4975484, "landcover": "forest" }, "geometry": { "type": "Point", "coordinates": [ 32.4975484, -20.368985 ] } },
{ "type": "Feature", "properties": { "Id": "ZW8", "lat": -17.1641724, "lon": 32.3960946, "landcover": "bush / shrub" }, "geometry": { "type": "Point", "coordinates": [ 32.3960946, -17.1641724 ] } },
{ "type": "Feature", "properties": { "Id": "ZW9", "lat": -17.5849053, "lon": 31.9374277, "landcover": "forest" }, "geometry": { "type": "Point", "coordinates": [ 31.9374277, -17.5849053 ] } }
]
}
